NORAD_CAT_ID,OBJECT_NAME,OBJECT_TYPE,EPOCH,MEAN_MOTION,ECCENTRICITY,INCLINATION,RA_OF_ASC_NODE,ARG_OF_PERICENTER,MEAN_ANOMALY,BSTAR,MEAN_MOTION_DOT,MEAN_MOTION_DDOT,TLE_LINE0,TLE_LINE1,TLE_LINE2,SEMIMAJOR_AXIS,PERIOD,APOGEE,PERIGEE,DECAYED
55764.0,STARLINK-5499,PAYLOAD,2023-11-15 01:36:06,14.98295377,0.0001671,70.0002,196.7069,267.0601,93.0366,-0.00042554,-5.162e-05,0.0,0 STARLINK-5499,1 55764U 23028Z   23319.06673690 -.00005162  00000-0 -42554-3 0  9996,2 55764  70.0002 196.7069 0001671 267.0601  93.0366 14.98295377 39861,6950.3,96.109,573.326,571.004,0.0
55764.0,STARLINK-5499,PAYLOAD,2023-11-15 22:25:48,14.9832809,0.0002916,70.0017,194.5187,269.9956,90.0869,1.8816e-05,1.32e-06,0.0,0 STARLINK-5499,1 55764U 23028Z   23319.93458351  .00000132  00000-0  18816-4 0  9992,2 55764  70.0017 194.5187 0002916 269.9956  90.0869 14.98328090 39999,6950.199,96.107,574.09,570.037,0.0
55764.0,STARLINK-5499,PAYLOAD,2023-11-16 01:38:03,14.983314,0.0002749,70.0021,194.1814,261.6952,98.3896,6.6633e-05,7.02e-06,0.0,0 STARLINK-5499,1 55764U 23028Z   23320.06810096  .00000702  00000-0  66633-4 0  9999,2 55764  70.0021 194.1814 0002749 261.6952  98.3896 14.98331400 40011,6950.189,96.107,573.964,570.143,0.0
55764.0,STARLINK-5499,PAYLOAD,2023-11-17 00:03:56,14.98329888,0.000261,70.0005,191.8244,271.4805,88.6055,3.8982e-05,3.72e-06,0.0,0 STARLINK-5499,1 55764U 23028Z   23321.00274267  .00000372  00000-0  38982-4 0  9997,2 55764  70.0005 191.8244 0002610 271.4805  88.6055 14.98329888 40158,6950.193,96.107,573.872,570.244,0.0
55764.0,STARLINK-5499,PAYLOAD,2023-11-17 22:29:35,14.98513594,0.0003443,70.0001,189.466,266.176,93.9005,0.0022843,0.000274,0.0,0 STARLINK-5499,1 55764U 23028Z   23321.93721842  .00027400  00000-0  22843-2 0  9993,2 55764  70.0001 189.4660 0003443 266.1760  93.9005 14.98513594 40293,6949.625,96.095,573.883,569.097,0.0
55764.0,STARLINK-5499,PAYLOAD,2023-11-18 01:42:01,14.98395251,0.0003303,69.9998,189.1307,269.8269,90.2512,0.00072207,8.548e-05,0.0,0 STARLINK-5499,1 55764U 23028Z   23322.07084491  .00008548  00000-0  72207-3 0  9993,2 55764  69.9998 189.1307 0003303 269.8269  90.2512 14.98395251 40313,6949.991,96.103,574.152,569.561,0.0
55764.0,STARLINK-5499,PAYLOAD,2023-11-18 14:31:10,14.98343311,0.0002846,69.9992,187.7856,278.8071,81.2765,-0.00015431,-1.934e-05,0.0,0 STARLINK-5499,1 55764U 23028Z   23322.60498217 -.00001934  00000-0 -15431-3 0  9997,2 55764  69.9992 187.7856 0002846 278.8071  81.2765 14.98343311 40390,6950.152,96.106,573.995,570.039,0.0
55764.0,STARLINK-5499,PAYLOAD,2023-11-18 19:19:34,14.98332306,0.0002867,69.9994,187.2808,271.6296,88.4534,4.4188e-05,4.34e-06,0.0,0 STARLINK-5499,1 55764U 23028Z   23322.80525893  .00000434  00000-0  44188-4 0  9994,2 55764  69.9994 187.2808 0002867 271.6296  88.4534 14.98332306 40426,6950.186,96.107,574.043,570.058,0.0
55764.0,STARLINK-5499,PAYLOAD,2023-11-18 20:55:42,14.98332755,0.000287,69.9994,187.1124,271.7826,88.3004,4.7374e-05,4.72e-06,0.0,0 STARLINK-5499,1 55764U 23028Z   23322.87201834  .00000472  00000-0  47374-4 0  9999,2 55764  69.9994 187.1124 0002870 271.7826  88.3004 14.98332755 40430,6950.184,96.107,574.044,570.055,0.0
55764.0,STARLINK-5499,PAYLOAD,2023-11-19 08:08:39,14.98324772,0.000284,69.9997,185.9339,274.9497,85.1337,8.0068e-05,8.62e-06,0.0,0 STARLINK-5499,1 55764U 23028Z   23323.33934287  .00000862  00000-0  80068-4 0  9996,2 55764  69.9997 185.9339 0002840 274.9497  85.1337 14.98324772 40505,6950.209,96.107,574.048,570.1,0.0
55764.0,STARLINK-5499,PAYLOAD,2023-11-19 12:57:56,14.97686162,0.0002907,69.9992,185.4315,202.1934,157.9099,-0.0070317,-0.00081655,0.0,0 STARLINK-5499,1 55764U 23028Z   23323.54023693 -.00081655  00000-0 -70317-2 0  9994,2 55764  69.9992 185.4315 0002907 202.1934 157.9099 14.97686162 40531,6952.185,96.148,576.071,572.029,0.0
55764.0,STARLINK-5499,PAYLOAD,2023-11-19 14:34:06,14.97672171,0.0002916,70.0001,185.2639,200.1325,159.9719,-0.0070023,-0.00081289,0.0,0 STARLINK-5499,1 55764U 23028Z   23323.60702524 -.00081289  00000-0 -70023-2 0  9995,2 55764  70.0001 185.2639 0002916 200.1325 159.9719 14.97672171 40541,6952.228,96.149,576.12,572.066,0.0
55764.0,STARLINK-5499,PAYLOAD,2023-11-20 08:10:37,14.98409936,0.0002925,70.0008,183.4092,266.5494,93.533,-0.0010629,-0.00012778,0.0,0 STARLINK-5499,1 55764U 23028Z   23324.34071436 -.00012778  00000-0 -10629-2 0  9991,2 55764  70.0008 183.4092 0002925 266.5494  93.5330 14.98409936 40656,6949.946,96.102,573.844,569.778,0.0
55764.0,STARLINK-5499,PAYLOAD,2023-11-20 12:59:04,14.98310706,0.0002803,69.9994,182.9059,271.2246,88.8592,0.00035906,4.192e-05,0.0,0 STARLINK-5499,1 55764U 23028Z   23324.54102550  .00004192  00000-0  35906-3 0  9990,2 55764  69.9994 182.9059 0002803 271.2246  88.8592 14.98310706 40683,6950.253,96.108,574.066,570.169,0.0
55764.0,STARLINK-5499,PAYLOAD,2023-11-20 19:23:36,14.98332757,0.0002945,69.9993,182.2317,272.121,87.9612,2.87e-05,2.49e-06,0.0,0 STARLINK-5499,1 55764U 23028Z   23324.80805681  .00000249  00000-0  28700-4 0  9998,2 55764  69.9993 182.2317 0002945 272.1210  87.9612 14.98332757 40728,6950.184,96.107,574.096,570.003,0.0
55764.0,STARLINK-5499,PAYLOAD,2023-11-20 22:35:52,14.98334286,0.0002821,69.9994,181.8944,270.2522,89.8314,-1.9573e-06,-1.16e-06,0.0,0 STARLINK-5499,1 55764U 23028Z   23324.94157625 -.00000116  00000-0 -19573-5 0  9995,2 55764  69.9994 181.8944 0002821 270.2522  89.8314 14.98334286 40749,6950.18,96.107,574.005,570.084,0.0
55764.0,STARLINK-5499,PAYLOAD,2023-11-21 08:12:40,14.983315,0.0003074,69.9995,180.8844,266.8777,93.203,-4.74e-05,-6.59e-06,0.0,0 STARLINK-5499,1 55764U 23028Z   23325.34213746 -.00000659  00000-0 -47400-4 0  9998,2 55764  69.9995 180.8844 0003074 266.8777  93.2030 14.98331500 40809,6950.188,96.107,574.19,569.917,0.0
55764.0,STARLINK-5499,PAYLOAD,2023-11-21 17:49:29,14.98326202,0.0002806,69.9997,179.8754,271.7326,88.3512,-2.7407e-05,-4.2e-06,0.0,0 STARLINK-5499,1 55764U 23028Z   23325.74270184 -.00000420  00000-0 -27407-4 0  9992,2 55764  69.9997 179.8754 0002806 271.7326  88.3512 14.98326202 40865,6950.205,96.107,574.02,570.119,0.0
55764.0,STARLINK-5499,PAYLOAD,2023-11-21 21:01:45,14.98329187,0.0002953,69.9992,179.5386,270.6676,89.4144,-1.718e-05,-2.98e-06,0.0,0 STARLINK-5499,1 55764U 23028Z   23325.87621957 -.00000298  00000-0 -17180-4 0  9994,2 55764  69.9992 179.5386 0002953 270.6676  89.4144 14.98329187 40887,6950.195,96.107,574.113,570.008,0.0
55764.0,STARLINK-5499,PAYLOAD,2023-11-22 00:14:01,14.98331364,0.0002922,69.9993,179.202,270.9083,89.1742,1.2363e-05,5.5e-07,0.0,0 STARLINK-5499,1 55764U 23028Z   23326.00973732  .00000055  00000-0  12363-4 0  9998,2 55764  69.9993 179.2020 0002922 270.9083  89.1742 14.98331364 40905,6950.189,96.107,574.085,570.023,0.0
55764.0,STARLINK-5499,PAYLOAD,2023-11-22 14:39:14,14.98326199,0.0002887,69.9991,177.6872,269.3754,90.7074,-2.4078e-05,-3.8e-06,0.0,0 STARLINK-5499,1 55764U 23028Z   23326.61058193 -.00000380  00000-0 -24078-4 0  9999,2 55764  69.9991 177.6872 0002887 269.3754  90.7074 14.98326199 40992,6950.205,96.107,574.076,570.063,0.0
55764.0,STARLINK-5499,PAYLOAD,2023-11-22 19:27:38,14.98322034,0.0002876,69.9991,177.1822,269.3085,90.7744,4.9915e-05,5.03e-06,0.0,0 STARLINK-5499,1 55764U 23028Z   23326.81086366  .00000503  00000-0  49915-4 0  9996,2 55764  69.9991 177.1822 0002876 269.3085  90.7744 14.98322034 41020,6950.218,96.108,574.081,570.084,0.0
55764.0,STARLINK-5499,PAYLOAD,2023-11-22 21:03:46,14.98328954,0.0002765,69.9989,177.0129,271.0218,89.0624,-3.0035e-05,-4.51e-06,0.0,0 STARLINK-5499,1 55764U 23028Z   23326.87762125 -.00000451  00000-0 -30035-4 0  9993,2 55764  69.9989 177.0129 0002765 271.0218  89.0624 14.98328954 41037,6950.196,96.107,573.983,570.139,0.0
55764.0,STARLINK-5499,PAYLOAD,2023-11-23 00:16:02,14.98331466,0.000302,69.999,176.6775,272.1159,87.9654,1.568e-06,-7.4e-07,0.0,0 STARLINK-5499,1 55764U 23028Z   23327.01113828 -.00000074  00000-0  15680-5 0  9990,2 55764  69.9990 176.6775 0003020 272.1159  87.9654 14.98331466 41056,6950.188,96.107,574.152,569.954,0.0
55764.0,STARLINK-5499,PAYLOAD,2023-11-23 14:41:15,14.98334955,0.0002265,69.9992,175.1619,276.7472,83.343,-9.0878e-05,-1.177e-05,0.0,0 STARLINK-5499,1 55764U 23028Z   23327.61198141 -.00001177  00000-0 -90878-4 0  9994,2 55764  69.9992 175.1619 0002265 276.7472  83.3430 14.98334955 41145,6950.178,96.107,573.617,570.468,0.0
55764.0,STARLINK-5499,PAYLOAD,2023-11-23 21:05:47,14.98349376,0.0002461,69.9991,174.4884,276.2678,83.8201,-0.00036135,-4.404e-05,0.0,0 STARLINK-5499,1 55764U 23028Z   23327.87901845 -.00004404  00000-0 -36135-3 0  9996,2 55764  69.9991 174.4884 0002461 276.2678  83.8201 14.98349376 41189,6950.133,96.106,573.708,570.288,0.0
55764.0,STARLINK-5499,PAYLOAD,2023-11-24 00:18:03,14.98328345,0.0002802,69.999,174.1517,269.8437,90.2401,1.5388e-05,9.1e-07,0.0,0 STARLINK-5499,1 55764U 23028Z   23328.01254135  .00000091  00000-0  15388-4 0  9990,2 55764  69.9990 174.1517 0002802 269.8437  90.2401 14.98328345 41208,6950.198,96.107,574.01,570.116,0.0
55764.0,STARLINK-5499,PAYLOAD,2023-11-24 14:43:15,14.9833099,0.000279,69.9988,172.637,267.0011,93.0829,4.6016e-05,4.56e-06,0.0,0 STARLINK-5499,1 55764U 23028Z   23328.61337925  .00000456  00000-0  46016-4 0  9992,2 55764  69.9988 172.6370 0002790 267.0011  93.0829 14.98330990 41292,6950.19,96.107,573.994,570.116,0.0
55764.0,STARLINK-5499,PAYLOAD,2023-11-24 21:07:48,14.98332743,0.0002752,69.9989,171.9637,266.7031,93.3813,6.6558e-05,7.01e-06,0.0,0 STARLINK-5499,1 55764U 23028Z   23328.88041734  .00000701  00000-0  66558-4 0  9997,2 55764  69.9989 171.9637 0002752 266.7031  93.3813 14.98332743 41336,6950.184,96.107,573.962,570.137,0.0
55764.0,STARLINK-5499,PAYLOAD,2023-11-25 14:45:16,14.98332766,0.0002635,69.9991,170.1118,265.0235,95.0623,4.8549e-05,4.86e-06,0.0,0 STARLINK-5499,1 55764U 23028Z   23329.61477707  .00000486  00000-0  48549-4 0  9992,2 55764  69.9991 170.1118 0002635 265.0235  95.0623 14.98332766 41447,6950.184,96.107,573.881,570.218,0.0
